[{"OBJECT_NAME":"STARLINK-11142 [DTC]","OBJECT_ID":"2024-107N","EPOCH":"2026-03-09T17:04:45.127488","MEAN_MOTION":15.69700519,"ECCENTRICITY":7.742e-5,"INCLINATION":53.1589,"RA_OF_ASC_NODE":250.8428,"ARG_OF_PERICENTER":131.9913,"MEAN_ANOMALY":228.1171,"EPHEMERIS_TYPE":0,"CLASSIFICATION_TYPE":"U","NORAD_CAT_ID":59957,"ELEMENT_SET_NO":999,"REV_AT_EPOCH":10216,"BSTAR":5.226068e-6,"MEAN_MOTION_DOT":4.5e-7,"MEAN_MOTION_DDOT":0},{"OBJECT_NAME":"JIELONG-3 R\/B","OBJECT_ID":"2023-190C","EPOCH":"2026-03-09T21:26:26.113920","MEAN_MOTION":15.18151254,"ECCENTRICITY":0.02497151,"INCLINATION":86.5597,"RA_OF_ASC_NODE":295.7177,"ARG_OF_PERICENTER":271.8036,"MEAN_ANOMALY":85.4623,"EPHEMERIS_TYPE":0,"CLASSIFICATION_TYPE":"U","NORAD_CAT_ID":58507,"ELEMENT_SET_NO":999,"REV_AT_EPOCH":12333,"BSTAR":0.00045620602,"MEAN_MOTION_DOT":0.00021606,"MEAN_MOTION_DDOT":0}]
